[Satellite]
VERSION=1.1
NAME=RS-40
NICKNAME=RS-40
TLE1=1 38735U 12041C   20156.40642189 -.00000001  00000-0 -77223-4 0  9990
TLE2=2 38735 082.4779 008.8029 0016587 187.4878 172.5958 12.42579717356233
STATUS=0
